<?xml version="1.0" encoding="UTF-8"?>
<gpx version="1.1" creator="Garmin GPS" xmlns="http://www.topografix.com/GPX/1/1">
  <metadata>
    <name>Contoh Drainase Jl. Sultan Hasanuddin</name>
    <desc>Sampel data survei GPS Garmin Kota Bobong</desc>
  </metadata>
  <trk>
    <name>Saluran Jl. Sultan Hasanuddin</name>
    <trkseg>
      <trkpt lat="-1.9440" lon="124.3750">
        <ele>4.2</ele>
      </trkpt>
      <trkpt lat="-1.9460" lon="124.3780">
        <ele>2.5</ele>
      </trkpt>
    </trkseg>
  </trk>
</gpx>
