<?xml version="1.0" encoding="UTF-8"?>
<kml xmlns="http://www.opengis.net/kml/2.2" xmlns:gx="http://www.google.com/kml/ext/2.2" xmlns:kml="http://www.opengis.net/kml/2.2" xmlns:atom="http://www.w3.org/2005/Atom">
<Document id="KmlFile">
	<gx:CascadingStyle kml:id="__managed_style_02A7F961724123F26513_highlight">
		<Style>
			<IconStyle>
				<scale>1.2</scale>
				<Icon>
					<href>https://earth.google.com/earth/document/icon?color=1976d2&amp;id=2000&amp;scale=4</href>
				</Icon>
				<hotSpot x="64" y="128" xunits="pixels" yunits="insetPixels"/>
			</IconStyle>
			<LabelStyle>
			</LabelStyle>
			<LineStyle>
				<color>ff2dc0fb</color>
				<width>3</width>
			</LineStyle>
			<PolyStyle>
				<color>40ffffff</color>
			</PolyStyle>
			<BalloonStyle>
			</BalloonStyle>
		</Style>
	</gx:CascadingStyle>
	<gx:CascadingStyle kml:id="__managed_style_02A7F961724123F26513_normal">
		<Style>
			<IconStyle>
				<Icon>
					<href>https://earth.google.com/earth/document/icon?color=1976d2&amp;id=2000&amp;scale=4</href>
				</Icon>
				<hotSpot x="64" y="128" xunits="pixels" yunits="insetPixels"/>
			</IconStyle>
			<LabelStyle>
			</LabelStyle>
			<LineStyle>
				<color>ff2dc0fb</color>
				<width>2</width>
			</LineStyle>
			<PolyStyle>
				<color>40ffffff</color>
			</PolyStyle>
			<BalloonStyle>
			</BalloonStyle>
		</Style>
	</gx:CascadingStyle>
	<StyleMap id="__managed_style_02A7F961724123F26513">
		<Pair>
			<key>normal</key>
			<styleUrl>#__managed_style_02A7F961724123F26513_normal</styleUrl>
		</Pair>
		<Pair>
			<key>highlight</key>
			<styleUrl>#__managed_style_02A7F961724123F26513_highlight</styleUrl>
		</Pair>
	</StyleMap>
	<Placemark id="0FACAE13C24123F9B570">
		<name>sungai</name>
		<LookAt>
			<longitude>124.39180537846</longitude>
			<latitude>-1.935705863868186</latitude>
			<altitude>19.86538794499695</altitude>
			<heading>-41.29151768619817</heading>
			<tilt>5.563473106114301</tilt>
			<gx:fovy>30.00003731815714</gx:fovy>
			<range>9305.795759382891</range>
			<altitudeMode>absolute</altitudeMode>
		</LookAt>
		<styleUrl>#__managed_style_02A7F961724123F26513</styleUrl>
		<LineString>
			<coordinates>
				124.3785070322432,-1.941368246826621,0 124.3786795369094,-1.941193301023897,0 124.3788102094911,-1.941050233875715,0 124.3788667121967,-1.940940543223668,0 124.3789691847416,-1.940761504178131,0 124.3790384759437,-1.940656199117214,0 124.3791572236098,-1.940568297111337,0 124.3793053494978,-1.940485294109831,0 124.3794770915917,-1.940420419756625,0 124.3796531203872,-1.940414121830207,0 124.379893487825,-1.940387294792794,0 124.3801244608833,-1.940387222149999,0 124.3802957954682,-1.940279106939441,0 124.3806919117101,-1.940067815447288,0 124.3808561663278,-1.939884871585362,0 124.381095917577,-1.939702051617252,0 124.3811786628791,-1.939586785557524,0 124.381279374561,-1.939461022815722,0 124.3814177125068,-1.939393275178577,0 124.381519728535,-1.939307062671239,0 124.3815541983516,-1.939255768865471,0 124.3815401730054,-1.939170713133648,0 124.3815164122714,-1.939064188801974,0 124.3814782091504,-1.938987306685851,0 124.3814300804161,-1.938914686433493,0 124.381315280341,-1.938847932532244,0 124.3812451758255,-1.938881066335352,0 124.3811910688591,-1.938823169711026,0 124.3812048606473,-1.938669148460179,0 124.3813167003558,-1.938555799057644,0 124.3814290354067,-1.938577992662816,0 124.381543297795,-1.938502937671877,0 124.3816503358381,-1.938363294616888,0 124.3817705396921,-1.938212417599142,0 124.3818732412014,-1.938135209137072,0 124.382022309922,-1.938139923139669,0 124.3820911820522,-1.938095089673131,0 124.3820878639366,-1.93800488696914,0 124.3820329776354,-1.93793239271004,0 124.381957282229,-1.937834108357425,0 124.3818475668221,-1.937708436143885,0 124.3817297974203,-1.937636343820598,0 124.3816360518508,-1.937501294660961,0 124.3815548626975,-1.93732708345781,0 124.3814614814912,-1.937170831515282,0 124.3814058511864,-1.936884601492668,0 124.3812702290582,-1.936647685118642,0 124.3812502274863,-1.936481451356188,0 124.3813270227544,-1.936329409802231,0 124.3814829794126,-1.936168900599719,0 124.3816783464663,-1.936093971037393,0 124.3818096005069,-1.93598031437642,0 124.381989837776,-1.935798869605268,0 124.3821107656149,-1.935750091300863,0 124.3822866569981,-1.935730181786179,0 124.382478004509,-1.935726500984359,0 124.3826500270768,-1.935685655933658,0 124.3828291669554,-1.935620971885545,0 124.383087641447,-1.935673511829667,0 124.3833061755997,-1.935677125213569,0 124.3834611634863,-1.935615251087345,0 124.3835933968016,-1.935588330866515,0 124.3837375874355,-1.935630757517206,0 124.383852646747,-1.935787345450335,0 124.3839880474973,-1.936072885357741,0 124.3840129957082,-1.93637959357892,0 124.3840690227362,-1.936610226940254,0 124.3841209399033,-1.936837862608686,0 124.3841826343061,-1.937163456159647,0 124.3842131092257,-1.937294657410423,0 124.3843351063021,-1.937456063339025,0 124.3845391843226,-1.937480839806046,0 124.3847322649,-1.937442511082347,0 124.3849231954246,-1.937441472075149,0 124.3851308386892,-1.937339433297171 
			</coordinates>
		</LineString>
	</Placemark>
</Document>
</kml>
